{
  "type": "FeatureCollection",
  "features": [
    {
      "type": "Feature",
      "properties": {
        "norad_id": 36994,
        "name": "FENGYUN 1C DEB",
        "group": "fengyun-1c-debris",
        "lat": 25.614991491768237,
        "lon": -42.124077875943186,
        "alt_km": 980.0634576812608,
        "timestamp": "2025-12-26T18:39:32.568922+00:00",
        "meta_object_name": "FENGYUN 1C DEB",
        "meta_object_id": "1999-025ECA",
        "meta_epoch": "2025-12-24T04:22:34.357440",
        "meta_mean_motion": 13.90790861,
        "meta_eccentricity": 0.01144801,
        "meta_inclination": 98.6443,
        "meta_ra_of_asc_node": 319.643,
        "meta_arg_of_pericenter": 261.4355,
        "meta_mean_anomaly": 97.382,
        "meta_ephemeris_type": 0,
        "meta_classification_type": "U",
        "meta_norad_cat_id": 36994,
        "meta_element_set_no": 999,
        "meta_rev_at_epoch": 81066,
        "meta_bstar": 0.00017123213,
        "meta_mean_motion_dot": 1.85e-06,
        "meta_mean_motion_ddot": 0,
        "tle_line1": "1 36994U 99025ECA 25358.18234210  .00000185  00000+0  17123-3 0  9990",
        "tle_line2": "2 36994  98.6443 319.6430 0114480 261.4355  97.3820 13.90790861810661"
      },
      "geometry": {
        "type": "Point",
        "coordinates": [
          -42.124077875943186,
          25.614991491768237
        ]
      }
    },
    {
      "type": "Feature",
      "properties": {
        "norad_id": 36995,
        "name": "FENGYUN 1C DEB",
        "group": "fengyun-1c-debris",
        "lat": -77.14105753064266,
        "lon": -81.63872922320463,
        "alt_km": 856.7933043889552,
        "timestamp": "2025-12-26T18:39:32.568932+00:00",
        "meta_object_name": "FENGYUN 1C DEB",
        "meta_object_id": "1999-025ECB",
        "meta_epoch": "2025-12-21T10:50:27.809664",
        "meta_mean_motion": 14.04870407,
        "meta_eccentricity": 0.00383848,
        "meta_inclination": 98.3428,
        "meta_ra_of_asc_node": 233.4615,
        "meta_arg_of_pericenter": 285.703,
        "meta_mean_anomaly": 73.9907,
        "meta_ephemeris_type": 0,
        "meta_classification_type": "U",
        "meta_norad_cat_id": 36995,
        "meta_element_set_no": 999,
        "meta_rev_at_epoch": 63679,
        "meta_bstar": 0.0002276039,
        "meta_mean_motion_dot": 3.29e-06,
        "meta_mean_motion_ddot": 0,
        "tle_line1": "1 36995U 99025ECB 25355.45171076  .00000329  00000+0  22760-3 0  9991",
        "tle_line2": "2 36995  98.3428 233.4615 0038384 285.7030  73.9907 14.04870407636794"
      },
      "geometry": {
        "type": "Point",
        "coordinates": [
          -81.63872922320463,
          -77.14105753064266
        ]
      }
    },
    {
      "type": "Feature",
      "properties": {
        "norad_id": 36996,
        "name": "FENGYUN 1C DEB",
        "group": "fengyun-1c-debris",
        "lat": 8.38342862971831,
        "lon": 150.65181262448982,
        "alt_km": 760.6008075640102,
        "timestamp": "2025-12-26T18:39:32.568942+00:00",
        "meta_object_name": "FENGYUN 1C DEB",
        "meta_object_id": "1999-025ECC",
        "meta_epoch": "2025-12-26T05:36:21.178944",
        "meta_mean_motion": 14.11586953,
        "meta_eccentricity": 0.02548996,
        "meta_inclination": 98.2295,
        "meta_ra_of_asc_node": 151.3743,
        "meta_arg_of_pericenter": 309.9457,
        "meta_mean_anomaly": 173.8447,
        "meta_ephemeris_type": 0,
        "meta_classification_type": "U",
        "meta_norad_cat_id": 36996,
        "meta_element_set_no": 999,
        "meta_rev_at_epoch": 59882,
        "meta_bstar": 0.000960644,
        "meta_mean_motion_dot": 2.326e-05,
        "meta_mean_motion_ddot": 0,
        "tle_line1": "1 36996U 99025ECC 25360.23357846  .00002326  00000+0  96064-3 0  9992",
        "tle_line2": "2 36996  98.2295 151.3743 0254899 309.9457 173.8447 14.11586953598827"
      },
      "geometry": {
        "type": "Point",
        "coordinates": [
          150.65181262448982,
          8.38342862971831
        ]
      }
    },
    {
      "type": "Feature",
      "properties": {
        "norad_id": 37003,
        "name": "FENGYUN 1C DEB",
        "group": "fengyun-1c-debris",
        "lat": 3.614214947121159,
        "lon": 23.288910329424105,
        "alt_km": 944.0609683565317,
        "timestamp": "2025-12-26T18:39:32.568954+00:00",
        "meta_object_name": "FENGYUN 1C DEB",
        "meta_object_id": "1999-025ECK",
        "meta_epoch": "2025-12-18T07:48:02.434752",
        "meta_mean_motion": 13.96231437,
        "meta_eccentricity": 0.00968579,
        "meta_inclination": 98.8458,
        "meta_ra_of_asc_node": 15.7304,
        "meta_arg_of_pericenter": 147.1253,
        "meta_mean_anomaly": 235.2095,
        "meta_ephemeris_type": 0,
        "meta_classification_type": "U",
        "meta_norad_cat_id": 37003,
        "meta_element_set_no": 999,
        "meta_rev_at_epoch": 60735,
        "meta_bstar": 0.00036300048,
        "meta_mean_motion_dot": 4.78e-06,
        "meta_mean_motion_ddot": 0,
        "tle_line1": "1 37003U 99025ECK 25352.32502818  .00000478  00000+0  36300-3 0  9997",
        "tle_line2": "2 37003  98.8458  15.7304 0096857 147.1253 235.2095 13.96231437607351"
      },
      "geometry": {
        "type": "Point",
        "coordinates": [
          23.288910329424105,
          3.614214947121159
        ]
      }
    },
    {
      "type": "Feature",
      "properties": {
        "norad_id": 37006,
        "name": "FENGYUN 1C DEB",
        "group": "fengyun-1c-debris",
        "lat": 72.85398949391617,
        "lon": 102.85275421658768,
        "alt_km": 754.7373825777368,
        "timestamp": "2025-12-26T18:39:32.568966+00:00",
        "meta_object_name": "FENGYUN 1C DEB",
        "meta_object_id": "1999-025ECN",
        "meta_epoch": "2025-12-23T10:36:30.026880",
        "meta_mean_motion": 14.48972917,
        "meta_eccentricity": 0.02551791,
        "meta_inclination": 99.298,
        "meta_ra_of_asc_node": 247.1031,
        "meta_arg_of_pericenter": 216.2092,
        "meta_mean_anomaly": 142.159,
        "meta_ephemeris_type": 0,
        "meta_classification_type": "U",
        "meta_norad_cat_id": 37006,
        "meta_element_set_no": 999,
        "meta_rev_at_epoch": 65269,
        "meta_bstar": 0.00065687937,
        "meta_mean_motion_dot": 3.705e-05,
        "meta_mean_motion_ddot": 0,
        "tle_line1": "1 37006U 99025ECN 25357.44201420  .00003705  00000+0  65688-3 0  9990",
        "tle_line2": "2 37006  99.2980 247.1031 0255179 216.2092 142.1590 14.48972917652696"
      },
      "geometry": {
        "type": "Point",
        "coordinates": [
          102.85275421658768,
          72.85398949391617
        ]
      }
    },
    {
      "type": "Feature",
      "properties": {
        "norad_id": 37008,
        "name": "FENGYUN 1C DEB",
        "group": "fengyun-1c-debris",
        "lat": -59.33483200072184,
        "lon": -75.95006825917812,
        "alt_km": 832.2418694552034,
        "timestamp": "2025-12-26T18:39:32.568976+00:00",
        "meta_object_name": "FENGYUN 1C DEB",
        "meta_object_id": "1999-025ECQ",
        "meta_epoch": "2025-12-25T19:20:52.190304",
        "meta_mean_motion": 14.07978939,
        "meta_eccentricity": 0.0062838,
        "meta_inclination": 99.1352,
        "meta_ra_of_asc_node": 118.8133,
        "meta_arg_of_pericenter": 217.661,
        "meta_mean_anomaly": 142.015,
        "meta_ephemeris_type": 0,
        "meta_classification_type": "U",
        "meta_norad_cat_id": 37008,
        "meta_element_set_no": 999,
        "meta_rev_at_epoch": 60498,
        "meta_bstar": 0.00099857,
        "meta_mean_motion_dot": 1.682e-05,
        "meta_mean_motion_ddot": 0,
        "tle_line1": "1 37008U 99025ECQ 25359.80615961  .00001682  00000+0  99857-3 0  9990",
        "tle_line2": "2 37008  99.1352 118.8133 0062838 217.6610 142.0150 14.07978939604981"
      },
      "geometry": {
        "type": "Point",
        "coordinates": [
          -75.95006825917812,
          -59.33483200072184
        ]
      }
    },
    {
      "type": "Feature",
      "properties": {
        "norad_id": 37017,
        "name": "FENGYUN 1C DEB",
        "group": "fengyun-1c-debris",
        "lat": 63.831136127296716,
        "lon": -72.65798234261348,
        "alt_km": 784.6776999447711,
        "timestamp": "2025-12-26T18:39:32.568986+00:00",
        "meta_object_name": "FENGYUN 1C DEB",
        "meta_object_id": "1999-025ECZ",
        "meta_epoch": "2025-12-25T14:01:57.704160",
        "meta_mean_motion": 14.40919347,
        "meta_eccentricity": 0.0281,
        "meta_inclination": 98.792,
        "meta_ra_of_asc_node": 304.4725,
        "meta_arg_of_pericenter": 327.0532,
        "meta_mean_anomaly": 31.341,
        "meta_ephemeris_type": 0,
        "meta_classification_type": "U",
        "meta_norad_cat_id": 37017,
        "meta_element_set_no": 999,
        "meta_rev_at_epoch": 61346,
        "meta_bstar": 0.0020644,
        "meta_mean_motion_dot": 0.00010567,
        "meta_mean_motion_ddot": 0,
        "tle_line1": "1 37017U 99025ECZ 25359.58469565  .00010567  00000+0  20644-2 0  9991",
        "tle_line2": "2 37017  98.7920 304.4725 0281000 327.0532  31.3410 14.40919347613467"
      },
      "geometry": {
        "type": "Point",
        "coordinates": [
          -72.65798234261348,
          63.831136127296716
        ]
      }
    }
  ]
}